[{"OBJECT_NAME":"FALCONSAT-6","OBJECT_ID":"2018-099BK","EPOCH":"2026-03-09T17:24:38.352096","MEAN_MOTION":15.26532865,"ECCENTRICITY":0.00143698,"INCLINATION":97.3865,"RA_OF_ASC_NODE":145.8165,"ARG_OF_PERICENTER":297.0944,"MEAN_ANOMALY":181.0714,"EPHEMERIS_TYPE":0,"CLASSIFICATION_TYPE":"U","NORAD_CAT_ID":43815,"ELEMENT_SET_NO":999,"REV_AT_EPOCH":39855,"BSTAR":0.00019476898,"MEAN_MOTION_DOT":5.029e-5,"MEAN_MOTION_DDOT":0},{"OBJECT_NAME":"STARLINK-35980","OBJECT_ID":"2025-270N","EPOCH":"2026-03-09T23:01:03.232416","MEAN_MOTION":15.2759051,"ECCENTRICITY":9.019e-5,"INCLINATION":43.0039,"RA_OF_ASC_NODE":54.951,"ARG_OF_PERICENTER":207.577,"MEAN_ANOMALY":152.5034,"EPHEMERIS_TYPE":0,"CLASSIFICATION_TYPE":"U","NORAD_CAT_ID":66600,"ELEMENT_SET_NO":999,"REV_AT_EPOCH":1764,"BSTAR":0.0009490438,"MEAN_MOTION_DOT":0.00025954,"MEAN_MOTION_DDOT":0}]
